ONEWEB-0176             
1 48210U 21031A   24341.92069398  .00000145  00000+0  35661-3 0  9995
2 48210  87.9015  40.5146 0001773  99.4547 260.6783 13.14502792175103
ONEWEB-0184             
1 48211U 21031B   24341.89372120 -.00000187  00000+0 -53846-3 0  9995
2 48211  87.9014  40.4974 0000881  86.9246 273.1985 13.14506088175078
ONEWEB-0179             
1 48212U 21031C   24341.86360859  .00000187  00000+0  47016-3 0  9999
2 48212  87.9019  40.5130 0001782 103.0872 257.0457 13.14502913175119
ONEWEB-0180             
1 48213U 21031D   24341.21181703 -.00000530  00000+0 -14634-2 0  9991
2 48213  87.9010  40.6356 0001542 104.4982 255.6319 13.14502208174918
ONEWEB-0218             
1 48214U 21031E   24341.91910254 -.00003753  00000+0 -10160-1 0  9999
2 48214  87.9014  40.4966 0000887  92.9555 267.1676 13.14523038175162
ONEWEB-0209             
1 48215U 21031F   24341.90800813 -.00000030  00000+0 -11542-3 0  9990
2 48215  87.9017  40.5368 0001783 106.1347 253.9979 13.14503696175163
ONEWEB-0198             
1 48216U 21031G   24341.89214122 -.00000178  00000+0 -51497-3 0  9997
2 48216  87.9016  40.5432 0001449 107.5773 252.5515 13.14502341175271
ONEWEB-0189             
1 48217U 21031H   24341.90482907 -.00000093  00000+0 -28510-3 0  9994
2 48217  87.9015  40.5156 0001409 112.6754 247.4525 13.14502069175019
